ANIK F2                 
1 28378U 04027A   17190.73379243 -.00000052  00000-0  00000-0 0  9995
2 28378   0.0234  46.4658 0000503 106.4743 288.0085  1.00272557 47624
AMAZONAS 1              
1 28393U 04031A   17190.61507583 -.00000098  00000-0  00000-0 0  9994
2 28393   1.7986  83.6754 0012919  17.9607 248.2166  0.98456761 47335
AMC-15                  
1 28446U 04041A   17190.58785358 -.00000090  00000-0  00000-0 0  9990
2 28446   0.0171 359.3015 0002622 104.6929 290.2894  1.00272218 46652
AMC-16                  
1 28472U 04048A   17190.72407066 -.00000208  00000-0  00000-0 0  9990
2 28472   0.0154 357.8751 0003221 117.6939 347.9303  1.00271041 46033
NSS-10 (AMC-12)         
1 28526U 05003A   17190.87962663 -.00000252  00000-0  00000-0 0  9996
2 28526   0.0198 340.2460 0003075 132.7476  94.2134  1.00272605 20454
XTAR-EUR                
1 28542U 05005A   17190.12166839  .00000149  00000-0  00000-0 0  9999
2 28542   0.0146  46.5475 0002784  54.2789 259.2003  1.00271777 45474
XM-3 (RHYTHM)           
1 28626U 05008A   17190.58452306 -.00000207  00000-0  00000-0 0  9998
2 28626   0.0172 195.6300 0000258 271.4654 305.9364  1.00271498  9904
INMARSAT 4-F1           
1 28628U 05009A   17190.83622240 -.00000263  00000-0  00000-0 0  9997
2 28628   2.8786  12.3014 0003167  97.8758 262.3151  1.00271433 44943
APSTAR 6                
1 28638U 05012A   17190.71390994 -.00000320  00000-0  00000-0 0  9991
2 28638   0.0328  75.2642 0002285  31.5742 212.0155  1.00271417 69674
SPACEWAY 1              
1 28644U 05015A   17190.63590993 -.00000104  00000-0  00000-0 0  9993
2 28644   0.0095 193.4747 0000402 307.9617 272.3367  1.00269592 44781
DIRECTV 8               
1 28659U 05019A   17190.48137443 -.00000117  00000-0  00000-0 0  9997
2 28659   0.0179  63.6158 0003409  46.7367 249.6796  1.00272176 44408
GALAXY 28 (G-28)        
1 28702U 05022A   17190.52827046 -.00000187  00000-0  00000-0 0  9997
2 28702   0.0219  15.7538 0001399  25.9892 347.0752  1.00271425 19379
EXPRESS-AM3             
1 28707U 05023A   17190.83219892 -.00000324  00000-0  00000-0 0  9994
2 28707   0.0292 205.5261 0000298 173.8873 311.1223  1.00271209 44111
THAICOM 4               
1 28786U 05028A   17190.86082833 -.00000365  00000-0  00000-0 0  9997
2 28786   0.0145  23.2326 0002525  84.5067 249.6247  1.00271809 43598
GALAXY 14 (G-14)        
1 28790U 05030A   17190.54702051  .00000035  00000-0  00000-0 0  9994
2 28790   0.0218  38.5785 0002759  69.5623 251.4570  1.00269416 43582
ANIK F1R                
1 28868U 05036A   17190.51621828 -.00000076  00000-0  00000-0 0  9991
2 28868   0.0202 336.8419 0003231  95.8801 293.4364  1.00271981 13770
GALAXY 15 (G-15)        
1 28884U 05041A   17190.54771494  .00000077  00000-0  00000-0 0  9993
2 28884   0.0150  89.7414 0001139  14.8910 247.2076  1.00270771 42894
SYRACUSE 3A             
1 28885U 05041B   17190.83518144  .00000127  00000-0  00000-0 0  9993
2 28885   0.0187  63.9254 0002501  39.5681 172.0968  1.00273325 43023
INMARSAT 4-F2           
1 28899U 05044A   17190.05918614  .00000008  00000-0  00000-0 0  9999
2 28899   2.5755  12.2078 0002940 104.7830 255.3952  1.00271670 42786
TELKOM 2                
1 28902U 05046A   17190.63452094 -.00000140  00000-0  00000-0 0  9993
2 28902   0.0129 239.2018 0002009 241.4516 192.5049  1.00271024 42502
SPACEWAY 2              
1 28903U 05046B   17190.40535448 -.00000128  00000-0  00000-0 0  9990
2 28903   0.0228 145.7609 0000597 301.2093 247.4155  1.00272166 18605
INSAT-4A                
1 28911U 05049A   17189.97197104 -.00000167  00000-0  00000-0 0  9998
2 28911   0.0917  95.0240 0000643 140.7340 124.2310  1.00272948 12988
METEOSAT-9 (MSG-2)      
1 28912U 05049B   17190.90323862  .00000059  00000-0  00000-0 0  9995
2 28912   2.2457  71.1767 0000473  28.5175 162.7785  1.00275857 42305
EUTELSAT 172A (GE-23)   
1 28924U 05052A   17190.79153513 -.00000008  00000-0  00000-0 0  9998
2 28924   0.0632  19.5997 0006008  87.8258 277.4266  1.00273039 19616
ECHOSTAR 10             
1 28935U 06003A   17190.51173955 -.00000057  00000-0  00000-0 0  9993
2 28935   0.0106  28.0986 0001591  75.8820 257.6622  1.00272492 41748
HIMAWARI-7 (MTSAT-2)    
1 28937U 06004A   17190.92196727 -.00000245  00000-0  00000-0 0  9992
2 28937   0.0433 191.4979 0003872 288.8613 284.5883  1.00272518 41747
SPAINSAT                
1 28945U 06007A   17190.28502513 -.00000218  00000-0  00000-0 0  9997
2 28945   0.0137 282.3002 0003797 206.7137 231.0199  1.00269255 41493
EUTELSAT HOT BIRD 13E   
1 28946U 06007B   17190.16603262  .00000085  00000-0  00000-0 0  9999
2 28946   0.0404 119.4897 0005881  16.0734 224.4796  1.00271254 41563
JCSAT-5A                
1 29045U 06010A   17190.57340934 -.00000330  00000-0  00000-0 0  9997
2 29045   0.0233  29.3685 0002218  79.7258 157.0824  1.00268831 41049
ASTRA 1KR               
1 29055U 06012A   17190.85327244  .00000118  00000-0  00000-0 0  9993
2 29055   0.0652 308.2461 0000891 111.0221 195.0598  1.00273507 12988
GOES 13                 
1 29155U 06018A   17190.40880508 -.00000252  00000-0  00000-0 0  9998
2 29155   0.1262 270.1024 0004460 189.1057 260.8380  1.00277022 10656
EUTELSAT 113 WEST A     
1 29162U 06020A   17190.51501922 -.00000039  00000-0  00000-0 0  9994
2 29162   0.0155 115.3881 0002675 352.6909 251.9456  1.00271487 40730
THAICOM 5               
1 29163U 06020B   17190.89077104 -.00000124  00000-0  00000-0 0  9991
2 29163   0.0490 241.2392 0002273 247.1354 198.7929  1.00273226 40764
GALAXY 16 (G-16)        
1 29236U 06023A   17190.52955138 -.00000128  00000-0  00000-0 0  9991
2 29236   0.0165  26.6164 0002884  83.2507 269.4251  1.00269387 40535
EUTELSAT HOT BIRD 13B   
1 29270U 06032A   17190.90326969  .00000085  00000-0  00000-0 0  9996
2 29270   0.0703  36.4448 0003480  46.3203 183.4175  1.00271828 14591
JCSAT-3A                
1 29272U 06033A   17190.57827115 -.00000347  00000-0  00000-0 0  9993
2 29272   0.0157 319.9708 0002343 145.3881 158.5137  1.00270557 15009
SYRACUSE 3B             
1 29273U 06033B   17190.83313344 -.00000046  00000-0  00000-0 0  9993
2 29273   0.0116  62.0176 0003937  30.9840 129.6696  1.00271603 39989
KOREASAT 5 (MUGUNGWHA 5)
1 29349U 06034A   17190.82337743 -.00000360  00000-0  00000-0 0  9995
2 29349   0.0251  83.0457 0001811  60.6025 193.7673  1.00272679  8585
ZHONGXING-22A           
1 29398U 06038A   17189.22563387 -.00000325  00000-0  00000-0 0  9991
2 29398   5.8262  57.6553 0003302 139.4069 272.2776  1.00273114 39663
DIRECTV 9S              
1 29494U 06043A   17190.52745437 -.00000116  00000-0  00000-0 0  9995
2 29494   0.0178  98.2786 0003643   8.5507 269.6027  1.00272145 18662
OPTUS D1                
1 29495U 06043B   17190.72087576 -.00000113  00000-0  00000-0 0  9998
2 29495   0.0180  29.6132 0003739  79.8226 237.9203  1.00269888 39414
XM-4 (BLUES)            
1 29520U 06049A   17190.73868722 -.00000024  00000-0  00000-0 0  9995
2 29520   0.0125 198.7653 0000349 265.6678 334.0518  1.00273371 18741
BADR-4                  
1 29526U 06051A   17190.84976491  .00000143  00000-0  00000-0 0  9990
2 29526   0.0432 350.4453 0002165  78.7297 190.6880  1.00273630 18578
FENGYUN 2D              
1 29640U 06053A   17190.92342791 -.00000366  00000-0  10000-3 0  9990
2 29640   4.4941  64.2830 0004691 326.6167 353.0170  1.00262629 38827
WILDBLUE-1              
1 29643U 06054A   17190.50951743 -.00000051  00000-0  00000-0 0  9998
2 29643   0.0150  45.9424 0001540  68.9572 244.9892  1.00270539 38812
AMC-18                  
1 29644U 06054B   17190.58785358 -.00000091  00000-0  00000-0 0  9998
2 29644   0.0130   4.7784 0002923 100.2072 289.3809  1.00271753 38858
MEASAT-3                
1 29648U 06056A   17190.94681678 -.00000244  00000-0  00000-0 0  9994
2 29648   0.0494 129.8696 0003867 355.2261 235.3125  1.00271848 17737
INSAT-4B                
1 30793U 07007A   17190.94480236 -.00000260  00000-0  00000-0 0  9999
2 30793   0.0186  83.6301 0007959  12.3095 265.7328  1.00272882  9473
SKYNET 5A               
1 30794U 07007B   17190.90092076 -.00000273  00000-0  00000-0 0  9991
2 30794   0.0663  20.4634 0003357  92.2481 234.8353  1.00269964 37963
ANIK F3                 
1 31102U 07009A   17190.54282035 -.00000002  00000-0  00000-0 0  9993
2 31102   0.0235  35.7331 0002478  62.0483 266.6024  1.00269256 37608
ASTRA 1L                
1 31306U 07016A   17190.84976491  .00000118  00000-0  00000-0 0  9993
2 31306   0.0567 271.8601 0002258 235.5815 105.6114  1.00272838 12343
GALAXY 17 (G-17)        
1 31307U 07016B   17190.58452306 -.00000176  00000-0  00000-0 0  9994
2 31307   0.0215  42.2285 0003354  67.5641 297.3461  1.00272134 37216
ZHONGXING-6B            
1 31800U 07031A   17190.93987649 -.00000364  00000-0  00000-0 0  9990
2 31800   0.0235  41.5571 0002610  71.3441 269.0726  1.00270241 36701
DIRECTV 10              
1 31862U 07032A   17190.48677561 -.00000104  00000-0  00000-0 0  9990
2 31862   0.0127 285.7379 0000489 199.7012 234.5655  1.00269454 12894
SPACEWAY 3              
1 32018U 07036A   17190.63590993 -.00000153  00000-0  00000-0 0  9992
2 32018   0.0079 120.8314 0000127 284.5987  16.2953  1.00270589 13859
BSAT-3A                 
1 32019U 07036B   17190.89483737 -.00000352  00000-0  00000-0 0  9999
2 32019   0.0186 226.9417 0002707 305.7011 187.3611  1.00271378 17763
INSAT-4CR               
1 32050U 07037A   17190.59040647  .00000122  00000-0  00000-0 0  9995
2 32050   0.0168  66.3469 0003172  30.8719  90.9276  1.00275953 18668
OPTUS D2                
1 32252U 07044A   17190.79837684 -.00000185  00000-0  00000-0 0  9994
2 32252   0.0169 342.1280 0003885 126.7343 258.4793  1.00271769 35843
INTELSAT 11 (IS-11)     
1 32253U 07044B   17190.89073757 -.00000270  00000-0  00000-0 0  9994
2 32253   0.0185 210.5272 0002082 266.6696  88.4860  1.00271138 35873
